[{"OBJECT_NAME":"HELIOS 1B","OBJECT_ID":"1999-064A","EPOCH":"2026-04-15T13:40:38.393184","MEAN_MOTION":14.87836987,"ECCENTRICITY":8.071e-5,"INCLINATION":98.1659,"RA_OF_ASC_NODE":8.8918,"ARG_OF_PERICENTER":38.6333,"MEAN_ANOMALY":321.494,"EPHEMERIS_TYPE":0,"CLASSIFICATION_TYPE":"U","NORAD_CAT_ID":25977,"ELEMENT_SET_NO":999,"REV_AT_EPOCH":69074,"BSTAR":8.7798483e-5,"MEAN_MOTION_DOT":7.44e-6,"MEAN_MOTION_DDOT":0},{"OBJECT_NAME":"TERRA","OBJECT_ID":"1999-068A","EPOCH":"2026-04-15T13:47:56.787648","MEAN_MOTION":14.61053047,"ECCENTRICITY":0.00035814,"INCLINATION":97.9519,"RA_OF_ASC_NODE":157.5863,"ARG_OF_PERICENTER":77.0866,"MEAN_ANOMALY":60.1903,"EPHEMERIS_TYPE":0,"CLASSIFICATION_TYPE":"U","NORAD_CAT_ID":25994,"ELEMENT_SET_NO":999,"REV_AT_EPOCH":40046,"BSTAR":4.9324743e-5,"MEAN_MOTION_DOT":1.98e-6,"MEAN_MOTION_DDOT":0},{"OBJECT_NAME":"SL-16 R/B","OBJECT_ID":"2000-006B","EPOCH":"2026-04-15T11:14:39.244128","MEAN_MOTION":14.15829124,"ECCENTRICITY":0.00147397,"INCLINATION":71.0045,"RA_OF_ASC_NODE":20.5021,"ARG_OF_PERICENTER":131.017,"MEAN_ANOMALY":229.223,"EPHEMERIS_TYPE":0,"CLASSIFICATION_TYPE":"U","NORAD_CAT_ID":26070,"ELEMENT_SET_NO":999,"REV_AT_EPOCH":35376,"BSTAR":-9.6207377e-5,"MEAN_MOTION_DOT":-2.37e-6,"MEAN_MOTION_DDOT":0},{"OBJECT_NAME":"TITAN 4B R/B","OBJECT_ID":"2000-047B","EPOCH":"2026-04-15T14:21:13.409568","MEAN_MOTION":15.09866703,"ECCENTRICITY":0.0041377,"INCLINATION":67.9868,"RA_OF_ASC_NODE":296.6999,"ARG_OF_PERICENTER":352.7883,"MEAN_ANOMALY":7.2665,"EPHEMERIS_TYPE":0,"CLASSIFICATION_TYPE":"U","NORAD_CAT_ID":26474,"ELEMENT_SET_NO":999,"REV_AT_EPOCH":39848,"BSTAR":9.8536246e-5,"MEAN_MOTION_DOT":1.49e-5,"MEAN_MOTION_DDOT":0},{"OBJECT_NAME":"ENVISAT","OBJECT_ID":"2002-009A","EPOCH":"2026-04-15T09:41:01.031424","MEAN_MOTION":14.39049489,"ECCENTRICITY":0.00011585,"INCLINATION":98.3785,"RA_OF_ASC_NODE":58.1408,"ARG_OF_PERICENTER":84.1301,"MEAN_ANOMALY":26.9083,"EPHEMERIS_TYPE":0,"CLASSIFICATION_TYPE":"U","NORAD_CAT_ID":27386,"ELEMENT_SET_NO":999,"REV_AT_EPOCH":26445,"BSTAR":2.4718712e-5,"MEAN_MOTION_DOT":3.3e-7,"MEAN_MOTION_DDOT":0},{"OBJECT_NAME":"IDEFIX & ARIANE 42P R/B","OBJECT_ID":"2002-021B","EPOCH":"2026-04-15T13:16:27.236928","MEAN_MOTION":14.31050842,"ECCENTRICITY":0.00130032,"INCLINATION":98.591,"RA_OF_ASC_NODE":43.7285,"ARG_OF_PERICENTER":79.6719,"MEAN_ANOMALY":280.593,"EPHEMERIS_TYPE":0,"CLASSIFICATION_TYPE":"U","NORAD_CAT_ID":27422,"ELEMENT_SET_NO":999,"REV_AT_EPOCH":24929,"BSTAR":6.2212042e-5,"MEAN_MOTION_DOT":1.2e-6,"MEAN_MOTION_DDOT":0},{"OBJECT_NAME":"AQUA","OBJECT_ID":"2002-022A","EPOCH":"2026-04-15T15:54:31.004640","MEAN_MOTION":14.62059246,"ECCENTRICITY":0.00017993,"INCLINATION":98.4233,"RA_OF_ASC_NODE":73.7191,"ARG_OF_PERICENTER":106.6242,"MEAN_ANOMALY":66.4637,"EPHEMERIS_TYPE":0,"CLASSIFICATION_TYPE":"U","NORAD_CAT_ID":27424,"ELEMENT_SET_NO":999,"REV_AT_EPOCH":27413,"BSTAR":9.8007501e-5,"MEAN_MOTION_DOT":4.43e-6,"MEAN_MOTION_DDOT":0},{"OBJECT_NAME":"CZ-4B R/B","OBJECT_ID":"2002-024C","EPOCH":"2026-04-15T14:01:29.651808","MEAN_MOTION":14.14554121,"ECCENTRICITY":0.00490415,"INCLINATION":98.8764,"RA_OF_ASC_NODE":158.7917,"ARG_OF_PERICENTER":278.3481,"MEAN_ANOMALY":210.7568,"EPHEMERIS_TYPE":0,"CLASSIFICATION_TYPE":"U","NORAD_CAT_ID":27432,"ELEMENT_SET_NO":999,"REV_AT_EPOCH":23445,"BSTAR":2.7919141e-5,"MEAN_MOTION_DOT":9.0e-8,"MEAN_MOTION_DDOT":0},{"OBJECT_NAME":"MIDORI II (ADEOS-II)","OBJECT_ID":"2002-056A","EPOCH":"2026-04-15T15:01:11.738784","MEAN_MOTION":14.29313007,"ECCENTRICITY":2.904e-5,"INCLINATION":98.7829,"RA_OF_ASC_NODE":64.3739,"ARG_OF_PERICENTER":140.255,"MEAN_ANOMALY":219.8653,"EPHEMERIS_TYPE":0,"CLASSIFICATION_TYPE":"U","NORAD_CAT_ID":27597,"ELEMENT_SET_NO":999,"REV_AT_EPOCH":21557,"BSTAR":7.4902433e-5,"MEAN_MOTION_DOT":1.45e-6,"MEAN_MOTION_DDOT":0},{"OBJECT_NAME":"H-2A R/B","OBJECT_ID":"2002-056E","EPOCH":"2026-04-15T15:32:00.303072","MEAN_MOTION":14.33787124,"ECCENTRICITY":0.00712326,"INCLINATION":98.3263,"RA_OF_ASC_NODE":64.6207,"ARG_OF_PERICENTER":52.113,"MEAN_ANOMALY":127.4075,"EPHEMERIS_TYPE":0,"CLASSIFICATION_TYPE":"U","NORAD_CAT_ID":27601,"ELEMENT_SET_NO":999,"REV_AT_EPOCH":21940,"BSTAR":7.4545402e-5,"MEAN_MOTION_DOT":1.72e-6,"MEAN_MOTION_DDOT":0},{"OBJECT_NAME":"CZ-4B R/B","OBJECT_ID":"2003-049C","EPOCH":"2026-04-15T05:49:30.596736","MEAN_MOTION":14.5505264,"ECCENTRICITY":0.004917,"INCLINATION":98.6899,"RA_OF_ASC_NODE":101.5897,"ARG_OF_PERICENTER":119.4856,"MEAN_ANOMALY":241.1257,"EPHEMERIS_TYPE":0,"CLASSIFICATION_TYPE":"U","NORAD_CAT_ID":28059,"ELEMENT_SET_NO":999,"REV_AT_EPOCH":19191,"BSTAR":5.737e-5,"MEAN_MOTION_DOT":2.0e-6,"MEAN_MOTION_DDOT":0},{"OBJECT_NAME":"CZ-2C R/B","OBJECT_ID":"2004-012C","EPOCH":"2026-04-15T11:01:38.501760","MEAN_MOTION":15.69134733,"ECCENTRICITY":0.00140257,"INCLINATION":97.7148,"RA_OF_ASC_NODE":174.3526,"ARG_OF_PERICENTER":170.4429,"MEAN_ANOMALY":189.7102,"EPHEMERIS_TYPE":0,"CLASSIFICATION_TYPE":"U","NORAD_CAT_ID":28222,"ELEMENT_SET_NO":999,"REV_AT_EPOCH":21003,"BSTAR":0.00033792294,"MEAN_MOTION_DOT":0.0003933,"MEAN_MOTION_DDOT":0},{"OBJECT_NAME":"SL-16 R/B","OBJECT_ID":"2004-021B","EPOCH":"2026-04-15T10:33:07.398144","MEAN_MOTION":14.14605654,"ECCENTRICITY":0.00063019,"INCLINATION":71.0004,"RA_OF_ASC_NODE":155.3732,"ARG_OF_PERICENTER":322.0201,"MEAN_ANOMALY":38.0476,"EPHEMERIS_TYPE":0,"CLASSIFICATION_TYPE":"U","NORAD_CAT_ID":28353,"ELEMENT_SET_NO":999,"REV_AT_EPOCH":12803,"BSTAR":3.6711849e-5,"MEAN_MOTION_DOT":2.3e-7,"MEAN_MOTION_DDOT":0},{"OBJECT_NAME":"CZ-4B R/B","OBJECT_ID":"2004-035C","EPOCH":"2026-04-15T13:10:05.980512","MEAN_MOTION":15.29692724,"ECCENTRICITY":0.00312942,"INCLINATION":97.3439,"RA_OF_ASC_NODE":139.3535,"ARG_OF_PERICENTER":194.5175,"MEAN_ANOMALY":165.517,"EPHEMERIS_TYPE":0,"CLASSIFICATION_TYPE":"U","NORAD_CAT_ID":28415,"ELEMENT_SET_NO":999,"REV_AT_EPOCH":18554,"BSTAR":0.00014194406,"MEAN_MOTION_DOT":4.065e-5,"MEAN_MOTION_DDOT":0},{"OBJECT_NAME":"CZ-2C R/B","OBJECT_ID":"2004-046B","EPOCH":"2026-04-15T12:11:05.170272","MEAN_MOTION":14.27006771,"ECCENTRICITY":0.01403669,"INCLINATION":98.1973,"RA_OF_ASC_NODE":18.1969,"ARG_OF_PERICENTER":46.3597,"MEAN_ANOMALY":314.9125,"EPHEMERIS_TYPE":0,"CLASSIFICATION_TYPE":"U","NORAD_CAT_ID":28480,"ELEMENT_SET_NO":999,"REV_AT_EPOCH":11375,"BSTAR":4.4882807e-5,"MEAN_MOTION_DOT":8.1e-7,"MEAN_MOTION_DDOT":0},{"OBJECT_NAME":"ARIANE 5 R/B","OBJECT_ID":"2004-049H","EPOCH":"2026-04-15T11:34:41.058624","MEAN_MOTION":14.85336798,"ECCENTRICITY":0.00830719,"INCLINATION":98.2678,"RA_OF_ASC_NODE":275.3306,"ARG_OF_PERICENTER":231.286,"MEAN_ANOMALY":128.0906,"EPHEMERIS_TYPE":0,"CLASSIFICATION_TYPE":"U","NORAD_CAT_ID":28499,"ELEMENT_SET_NO":999,"REV_AT_EPOCH":15125,"BSTAR":5.6901782e-5,"MEAN_MOTION_DOT":4.54e-6,"MEAN_MOTION_DDOT":0},{"OBJECT_NAME":"CZ-2D R/B","OBJECT_ID":"2005-024B","EPOCH":"2026-04-14T18:43:17.521824","MEAN_MOTION":15.63550174,"ECCENTRICITY":0.00030213,"INCLINATION":97.3553,"RA_OF_ASC_NODE":121.3376,"ARG_OF_PERICENTER":207.519,"MEAN_ANOMALY":152.5909,"EPHEMERIS_TYPE":0,"CLASSIFICATION_TYPE":"U","NORAD_CAT_ID":28738,"ELEMENT_SET_NO":999,"REV_AT_EPOCH":14541,"BSTAR":0.00032281804,"MEAN_MOTION_DOT":0.00029845,"MEAN_MOTION_DDOT":0}]
