TERRA
1 25994U 99068A   26105.57496282  .00000198  00000+0  49325-4 0  9992
2 25994  97.9519 157.5863 0003581  77.0866  60.1903 14.61053047400461
AQUA
1 27424U 02022A   26105.66285885  .00000443  00000+0  98008-4 0  9996
2 27424  98.4233  73.7191 0001799 106.6242  66.4637 14.62059246274133
HELIOS 1B
1 25977U 99064A   26105.56988881  .00000744  00000+0  87798-4 0  9992
2 25977  98.1659   8.8918 0000807  38.6333 321.4940 14.87836987690745
SL-16 R/B
1 26070U 00006B   26105.46850977 -.00000237  00000+0 -96207-4 0  9992
2 26070  71.0045  20.5021 0014739 131.0170 229.2230 14.15829124353762
TITAN 4B R/B
1 26474U 00047B   26105.59807187  .00001490  00000+0  98536-4 0  9991
2 26474  67.9868 296.6999 0041377 352.7883   7.2665 15.09866703398480
ENVISAT
1 27386U 02009A   26105.40348416  .00000033  00000+0  24719-4 0  9993
2 27386  98.3785  58.1408 0001158  84.1301  26.9083 14.39049489264456
IDEFIX & ARIANE 42P R/B
1 27422U 02021B   26105.55309302  .00000120  00000+0  62212-4 0  9992
2 27422  98.5910  43.7285 0013003  79.6719 280.5930 14.31050842249297
CZ-4B R/B
1 27432U 02024C   26105.58437097  .00000009  00000+0  27919-4 0  9993
2 27432  98.8764 158.7917 0049041 278.3481 210.7568 14.14554121234456
MIDORI II (ADEOS-II)
1 27597U 02056A   26105.62583031  .00000145  00000+0  74902-4 0  9990
2 27597  98.7829  64.3739 0000290 140.2550 219.8653 14.29313007215579
H-2A R/B
1 27601U 02056E   26105.64722573  .00000172  00000+0  74545-4 0  9997
2 27601  98.3263  64.6207 0071232  52.1130 127.4075 14.33787124219403
CZ-4B R/B
1 28059U 03049C   26105.24271524  .00000200  00000+0  57370-4 0  9998
2 28059  98.6899 101.5897 0049170 119.4856 241.1257 14.55052640191916
CZ-2C R/B
1 28222U 04012C   26105.45947340  .00039330  00000+0  33792-3 0  9997
2 28222  97.7148 174.3526 0014025 170.4429 189.7102 15.69134733210037
SL-16 R/B
1 28353U 04021B   26105.43966896  .00000023  00000+0  36712-4 0  9990
2 28353  71.0004 155.3732 0006301 322.0201  38.0476 14.14605654128039
CZ-4B R/B
1 28415U 04035C   26105.54868033  .00004065  00000+0  14194-3 0  9999
2 28415  97.3439 139.3535 0031294 194.5175 165.5170 15.29692724185542
CZ-2C R/B
1 28480U 04046B   26105.50769873  .00000081  00000+0  44883-4 0  9994
2 28480  98.1973  18.1969 0140366  46.3597 314.9125 14.27006771113756
ARIANE 5 R/B
1 28499U 04049H   26105.48241966  .00000454  00000+0  56902-4 0  9991
2 28499  98.2678 275.3306 0083071 231.2860 128.0906 14.85336798151255
CZ-2D R/B
1 28738U 05024B   26104.78006391  .00029845  00000+0  32282-3 0  9993
2 28738  97.3553 121.3376 0003021 207.5190 152.5909 15.63550174145418
